ORBCOMM FM20            
1 25416U 98046D   25204.54186607  .00000839  00000+0  32634-3 0  9995
2 25416  44.9955   9.0969 0001543 141.9870 218.1087 14.37263044409534
ORBCOMM FM16            
1 25417U 98046E   25204.49456920  .00001092  00000+0  39633-3 0  9996
2 25417  44.9950   0.4130 0005290 132.3243 227.8054 14.38983111409701
ORBCOMM FM15            
1 25418U 98046F   25203.50752121  .00000886  00000+0  33278-3 0  9999
2 25418  44.9983  10.3514 0004860 126.0774 234.0525 14.38622040409507
ORBCOMM FM14            
1 25419U 98046G   25203.51640340  .00000907  00000+0  33695-3 0  9997
2 25419  44.9970   8.4444 0003670 125.0338 235.0855 14.38985294409529
ORBCOMM FM13            
1 25420U 98046H   25203.59184131  .00000812  00000+0  31426-3 0  9993
2 25420  44.9986  16.4084 0005502 103.7767 256.3693 14.37730087408333
ORBCOMM FM21            
1 25475U 98053A   25204.44026100  .00000763  00000+0  30006-3 0  9995
2 25475  45.0085  97.8046 0002393  23.3205 336.7751 14.37403049402792
ORBCOMM FM22            
1 25476U 98053B   25203.40911682  .00000858  00000+0  32463-3 0  9993
2 25476  45.0075  97.2557 0004204  30.3762 329.7330 14.38450204402344
ORBCOMM FM23            
1 25477U 98053C   25203.74142239  .00000840  00000+0  32454-3 0  9996
2 25477  45.0083 103.1874 0003444  22.6471 337.4529 14.37587102402825
